QIANFAN-49              
1 62250U 24232P   25356.24644388  .00000090  00000+0  12036-3 0  9991
2 62250  89.0017  40.2773 0015079 160.7403 199.4322 13.50980666 69120
QIANFAN-50              
1 62251U 24232Q   25356.19705381  .00000102  00000+0  13977-3 0  9996
2 62251  89.0022  40.2910 0016689 162.8634 197.3084 13.50977447 69144
QIANFAN-51              
1 62252U 24232R   25356.18061574  .00000087  00000+0  11626-3 0  9996
2 62252  89.0016  40.2860 0014071 165.1990 194.9576 13.50980193 69136
QIANFAN-52              
1 62253U 24232S   25356.20943683  .00000088  00000+0  11816-3 0  9992
2 62253  89.0012  40.1563 0016294 158.7831 201.3999 13.50978359 69226
QIANFAN-53              
1 62254U 24232T   25356.18883245  .00000097  00000+0  13212-3 0  9999
2 62254  89.0020  40.2635 0015151 159.4090 200.7675 13.50980713 69189
QIANFAN-54              
1 62255U 24232U   25356.22998414  .00000103  00000+0  14088-3 0  9990
2 62255  89.0010  39.9370 0002427 156.1011 204.0253 13.50980969100693
QIANFAN-55              
1 62785U 25016A   25356.25599726  .00000199  00000+0  28891-3 0  9997
2 62785  88.9783 102.2285 0015863 324.3149  35.6940 13.50990358 48475
QIANFAN-56              
1 62786U 25016B   25356.27247353  .00000169  00000+0  24332-3 0  9999
2 62786  88.9757 102.0607 0014568 327.1921  32.8324 13.50981365 48522
